[{"OBJECT_NAME":"STARLINK-30123","OBJECT_ID":"2023-079R","EPOCH":"2026-03-09T06:44:27.035808","MEAN_MOTION":15.2758213,"ECCENTRICITY":5.731e-5,"INCLINATION":43.0029,"RA_OF_ASC_NODE":36.2461,"ARG_OF_PERICENTER":244.6069,"MEAN_ANOMALY":115.4724,"EPHEMERIS_TYPE":0,"CLASSIFICATION_TYPE":"U","NORAD_CAT_ID":56838,"ELEMENT_SET_NO":999,"REV_AT_EPOCH":15368,"BSTAR":-6.6310662e-5,"MEAN_MOTION_DOT":-2.086e-5,"MEAN_MOTION_DDOT":0},{"OBJECT_NAME":"CZ-6A DEB","OBJECT_ID":"2022-151DE","EPOCH":"2026-03-09T09:45:43.657920","MEAN_MOTION":15.34292219,"ECCENTRICITY":0.00393756,"INCLINATION":99.0022,"RA_OF_ASC_NODE":218.5596,"ARG_OF_PERICENTER":192.6197,"MEAN_ANOMALY":167.4059,"EPHEMERIS_TYPE":0,"CLASSIFICATION_TYPE":"U","NORAD_CAT_ID":54359,"ELEMENT_SET_NO":999,"REV_AT_EPOCH":10560,"BSTAR":0.0065240017,"MEAN_MOTION_DOT":0.00228186,"MEAN_MOTION_DDOT":0}]
